IRIDIUM 39              
1 25042U 97069D   25069.59283053  .00001274  00000+0  33049-3 0  9996
2 25042  86.3861 253.3956 0015884 277.1681  82.7717 14.48967629434681
IRIDIUM 38              
1 25043U 97069E   25069.57057201  .00000747  00000+0  24077-3 0  9994
2 25043  86.3900 274.6648 0003884  75.8794 284.2835 14.37955689431784
IRIDIUM 42              
1 25077U 97077A   25069.59534773  .00000641  00000+0  21298-3 0  9991
2 25077  86.3910 280.7088 0002806  86.4069 273.7449 14.36204604427045
IRIDIUM 44              
1 25078U 97077B   25069.53782484  .00000839  00000+0  25978-3 0  9998
2 25078  86.3901 262.8978 0002637  45.4894 314.6520 14.40082225429504
IRIDIUM 45              
1 25104U 97082A   25069.58200980  .00019145  00000+0  77518-3 0  9992
2 25104  86.3555  95.6281 0125929 341.4807  18.1870 15.17452030437065
IRIDIUM 24              
1 25105U 97082B   25069.56790231  .00000768  00000+0  22825-3 0  9996
2 25105  86.3896 122.1453 0012992  52.0489 308.1883 14.41932638429001
IRIDIUM 51              
1 25262U 98018A   25069.57851824  .00028259  00000+0  79889-3 0  9994
2 25262  86.3833 104.3676 0098810 266.5769  92.4174 15.31337401431894
IRIDIUM 57              
1 25273U 98019B   25069.35256157  .00000805  00000+0  27162-3 0  9995
2 25273  86.4032 186.6289 0002157  93.9676 266.1767 14.35774538410602
